#dP2024 10 23  0  0  0.00000000     289 d+D   IGS20 FIT AIUB
## 2337 259200.00000000   300.00000000 60606 0.0000000000000
+  122   G02G03G04G05G06G07G08G09G10G11G12G13G14G15G16G17G18
+        G19G20G21G22G23G24G25G26G27G28G29G30G31G32R01R02R03
+        R04R05R07R08R09R11R12R14R15R16R17R18R19R20R21R22R24
+        R25R26E02E03E04E05E06E07E08E09E10E11E12E13E14E15E16
+        E18E19E21E23E24E25E26E27E29E30E31E33E34E36C06C07C08
+        C09C10C11C12C13C14C16C19C20C21C22C23C24C25C26C27C28
+        C29C30C32C33C34C35C36C37C38C39C40C41C42C43C44C45C48
+        J02J03J04  0  0  0  0  0  0  0  0  0  0  0  0  0  0
++         5  5  5  5  5  5  5  5  5  5  5  5  5  5  5  5  5
++         5  5  5  5  5  5  5  5  5  5  5  5  5  5  5  5  5
++         5  5  5  5  6  5  6  6  6  7  5  5  5  6  5  5  5
++         5  5  5  5  5  5  5  5  5  5  5  5  5  5  5  5  5
++         5  5  5  5  5  5  5  5  5  5  5  5  5  5  5  5  5
++         5  5  5  5  5  5  5  5  5  5  5  5  5  5  5  5  5
++         5  5  5  5  5  5  5  5  5  5  5  5  5  5  5  5  5
++         5  5  5  0  0  0  0  0  0  0  0  0  0  0  0  0  0
%c M  cc GPS ccc cccc cccc cccc cccc ccccc ccccc ccccc ccccc
%c cc cc ccc ccc cccc cccc cccc cccc ccccc ccccc ccccc ccccc
%f  1.2500000  1.025000000  0.00000000000  0.000000000000000
%f  0.0000000  0.000000000  0.00000000000  0.000000000000000
%i    0    0    0    0      0      0      0      0         0
%i    0    0    0    0      0      0      0      0         0
/* Center for Orbit Determination in Europe (CODE)                              
/* MGEX orbits and clocks for year-day 2024-2970                                
/* Middle day of a 3-day long-arc multi-GNSS solution                           
/* Systems considered: GPS/GLONASS/Galileo/BeiDou/QZSS                          
/* Product reference - DOI 10.48350/197028                                      
/* PCV:IGS20      OL/AL:FES2014b NONE     YN ORB:CoN CLK:CoN                    
*  2024 10 23 10  0  0.00000000
PG02   3762.491669  14382.605979 -21541.102970   -330.911441
PG03  11806.148694  22804.065570  -7170.307042    578.836276
PG04   2220.805838  21455.512022  15412.149942    466.710754
PG05    915.420843 -18470.570597  18859.305858   -190.690880
PG06  25913.995883  -5332.590007   3020.217466    -59.260624
PG07  20426.320467   8319.331749  15647.186333    -25.317301
PG08  -5215.569278  25335.501956  -5002.770820    392.770550
PG09  10319.515459  13352.452220  20399.341452    411.073740
PG10 -18615.927876  -3934.021082 -18458.041154   -168.628620
PG11  17473.147961 -12535.956347  15579.844413   -745.960609
PG12  -7220.701293 -23471.684179 -10455.230242   -547.091466
PG13  13667.859583 -22593.880286    878.016122    682.775528
PG14  20004.330767   7400.630414 -15924.075850    523.789820
PG15   1492.294678 -25911.300954  -5754.633970    219.066315
PG16  -7096.120340  14995.482253  20294.293686   -147.487119
PG17  16836.856433  -3605.819750 -19854.894675    585.655980
PG18 -21473.991517  -6990.006700  14189.804260   -658.849131
PG19  18105.479566 -12059.493910 -15084.552060    553.960627
PG20  10652.996870 -11067.412253  21738.565932    369.408176
PG21  -2454.319953  15550.465297 -20812.017207     99.151373
PG22  16639.055723   -397.445597 -20225.766438    -73.466086
PG23 -20130.709857 -15318.306786  -8434.132336    347.701209
PG24  -1839.055114 -15977.997531 -21569.390087   -483.760351
PG25 -17307.961830 -20312.370759    654.453184    499.418815
PG26 -15822.041256   5471.356510  20520.042375     48.655783
PG27 -12582.461320  22477.503688   5166.474196    -34.673695
PG28 -26079.942605   5015.283483    527.062650   -455.315622
PG29  -7865.218262 -15371.600538  20105.598387   -569.265410
PG30  25949.001321    926.551011   6378.169505   -296.790787
PG31 -21667.726966  10677.377129  11216.797221   -222.954924
PG32 -16816.320969   6271.141746 -19294.229070   -583.331278
PR01   9983.883436  10864.399192  20803.567993    101.995752
PR02  10435.504115  -7773.857647  21992.092141    -25.322024
PR03   5367.542149 -22608.519202  10640.019677    109.965286
PR04  -2142.320917 -24670.571851  -6145.427704    260.580979
PR05  -8656.150350 -13726.053865 -19687.362105    139.597835
PR07  -5150.008791  22800.417494 -10108.171895     93.514226
PR08   2579.038247  24522.319959   6501.729190     -6.385255
PR09 -19504.640805  -1547.700035  16336.001731    216.334401
PR11   9777.943693  15489.417971  17770.957398      8.627776
PR12  21906.475178  13054.941583    129.278028     46.378896
PR14   5836.134401  -9488.710830 -22935.386327     27.131997
PR15 -11189.874397 -15875.283291 -16513.219005     74.702899
PR16 -21906.927949 -13027.931636   -263.415820     30.172620
PR17  16148.219471 -15320.513236  12426.075475    133.308219
PR18   1564.037292 -12285.991031  22327.908305    168.272906
PR19 -12515.573287  -4703.674533  21732.533706   -295.884729
PR20 -23320.413966   8402.988872   5967.054787   -120.828018
PR21 -16996.985922  15076.929691 -11624.471646   -145.138638
PR22   -402.251291  12103.291226 -22418.068938     12.530465
PR24  22956.993723  -9701.111603  -5349.232675    -77.125188
PR25 -16413.833358  14896.582253 -12637.657935    -88.695775
PR26   1921.781217  24993.942447   4780.906072   -525.442017
PE02  16615.551804  -5025.018861 -23976.471688    169.112698
PE03  19555.406171 -15911.134073  15490.548411   -148.732315
PE04 -10961.643697  27361.864823   2716.031772    -64.165696
PE05  16452.555441   4627.391926  24162.052186   4795.354760
PE06  -3747.083578  26912.547109  11711.517206    -39.328012
PE07  -3468.065603 -22786.991672 -18571.267625   -148.868865
PE08  11490.407354 -27202.681651  -1975.268477   -356.020059
PE09   3281.673463  22803.358173  18584.536595   -636.363573
PE10   -110.312177  16029.890027 -24882.942430   -665.047664
PE11  12081.502118  14071.618603 -23073.704298   1128.317460
PE12 -10733.001454  15543.012654 -22785.170303  -1263.800650
PE13 -11447.376284 -14176.925276  23336.398642    -26.040616
PE14  19244.371790  -2784.175054 -19118.355979    316.676909
PE15  11504.127205 -15359.020328  22547.582305   -134.763053
PE16  16688.043421  -4442.223105 -23606.943733 999999.999999
PE18 -19632.529433  20907.296224  10123.327372    690.196347
PE19 -19774.010730  14112.743125 -16911.229450    820.443283
PE21 -21650.357076 -14230.998607  14318.682634   -624.091472
PE23 -11539.145612  12439.342686  24004.120967    -23.668572
PE24  13921.538274  25774.967658   4150.101048  -1058.464160
PE25  21614.704643  14620.861353 -13959.779781     10.435322
PE26 -27501.484977  -4496.091023  10007.451783   -232.719454
PE27 -14066.812202 -25729.414793  -4077.051277   -485.142414
PE29 -16766.361576  -4316.037744 -24019.133857    -39.884827
PE30   1758.528113 -21969.531212 -19773.807389   -848.614222
PE31  -1728.118868  21901.214837  19842.820247    -40.274678
PE33 -27540.857083   7237.691479  -8098.643517     15.905130
PE34  27312.958967  -7549.916812   8527.369339   -141.676869
PE36  27264.046288   4748.638182 -10493.595805   -300.954493
PC06 -14219.208075  25822.849258  30123.769581    355.631920
PC07 -10089.934114  40687.952100   5752.512940   -265.623757
PC08    524.543766  25539.785024 -33483.715827   -695.713601
PC09  -6704.626282  25468.489687  33292.463393   -520.022144
PC10  -4716.574026  42218.861942   -258.714773   -243.559005
PC11  -4767.897632 -15501.394982  22784.723430    207.415510
PC12  13724.795896 -21044.546926  12184.467236   -256.450330
PC13   7076.112536  29393.400659 -29068.290687     94.771996
PC14  -8771.555399 -25615.064620  -6644.773720   -343.782115
PC16 -19630.134109  24906.155656  27918.189702    160.345488
PC19  13271.059570  19582.750328  14832.848359   -953.050942
PC20   3892.395508  27633.799720   -879.558817   -925.027949
PC21   8898.836507 -19611.260986  17738.599159   -919.890273
PC22  15665.956892   -208.346907  23079.466593    159.377543
PC23 -26443.061314  -3584.517777   8184.850683   -865.425401
PC24  -3928.049642 -17797.582301 -21156.165291    790.469809
PC25 -21802.072749 -14721.601581  -9359.617181    540.687535
PC26  15526.858063 -10405.265723 -20731.976811   -366.831358
PC27 -19860.696640  19286.785323  -3516.550662    386.223491
PC28 -23828.206783   8862.986961  11524.412288    300.076958
PC29  13336.597204   9553.379830 -22574.009143    352.353022
PC30  -5167.645559  21074.057680 -17543.225478      7.377880
PC32  -8810.024346  19597.068377 -17807.932406   -776.702176
PC33 -13376.906824 -19560.368037 -14735.705165   -955.770955
PC34   3461.638834 -20562.781612  18543.841099    548.464626
PC35  23461.457258  -9196.000482 -12033.651965    227.789095
PC36  21746.169986  15014.102699   8962.355841    208.078055
PC37 -15976.012821   9910.302166  20638.132725   -893.086749
PC38  -7552.451645  22512.934403 -34769.084717    186.876700
PC39 -23176.937290  25369.146775  24333.560693    -10.211928
PC40 -16136.313590  38264.246767   8246.465983    -98.345792
PC41 -15808.923188   -824.301496 -22935.812356   -895.984297
PC42  -2708.761608 -27624.376565   2768.992590   -499.580824
PC43 -12581.739331 -10461.830056  22597.783294     89.836433
PC44  19179.781770 -20014.756479   3309.789101    630.718982
PC45  26475.373586   4100.595444  -7764.298756   -153.475704
PC48   8840.967048  25677.539886   6399.398691    872.863796
PJ02 -25622.197068  24657.207062  27737.097693     -1.332855
PJ03 -35094.231310  18425.487854  -9682.396034     -5.139943
PJ04 -20274.152940  30289.028884 -16227.614877     21.886240
EOF
